<?xml version="1.0" encoding="UTF-8"?>
<kml xmlns="http://www.opengis.net/kml/2.2" xmlns:gx="http://www.google.com/kml/ext/2.2">
    <Document id="1">
        <Folder id="2">
            <Style id="9">
                <LineStyle id="10">
                    <color>ff1e1b99</color>
                    <colorMode>normal</colorMode>
                    <width>2.0</width>
                </LineStyle>
                <PolyStyle id="11">
                    <color>ff1e1b99</color>
                    <colorMode>normal</colorMode>
                    <fill>0</fill>
                    <outline>1</outline>
                </PolyStyle>
            </Style>
            <Style id="14">
                <LineStyle id="15">
                    <color>ff1e1b99</color>
                    <colorMode>normal</colorMode>
                    <width>2.0</width>
                </LineStyle>
            </Style>
            <Style id="18">
                <IconStyle id="19">
                    <color>ff00ff00</color>
                    <colorMode>normal</colorMode>
                    <scale>0.8</scale>
                    <heading>0</heading>
                    <Icon id="20">
                        <href>http://maps.google.com/mapfiles/kml/shapes/placemark_circle.png</href>
                    </Icon>
                </IconStyle>
            </Style>
            <Style id="50">
                <IconStyle id="51">
                    <colorMode>normal</colorMode>
                    <scale>0</scale>
                    <heading>0</heading>
                    <Icon id="52">
                        <href>http://maps.google.com/mapfiles/kml/pushpin/ylw-pushpin.png</href>
                    </Icon>
                </IconStyle>
                <LabelStyle id="53">
                    <color>ff00ff00</color>
                    <colorMode>normal</colorMode>
                    <scale>0.5</scale>
                </LabelStyle>
            </Style>
            <name>text2</name>
            <Placemark id="4">
                <styleUrl>#9</styleUrl>
                <Polygon id="3">
                    <outerBoundaryIs>
                        <LinearRing id="7">
                            <coordinates>78.09770874799885,15.651223234060055,0.0 78.0993735889659,15.651799201948455,0.0 78.1089075813858,15.645878403313569,0.0 78.10861360892764,15.644331960130112,0.0 78.10504631946202,15.640787096729285,0.0 78.10114027966802,15.643294019933409,0.0 78.09784337573375,15.645257098993657,0.0 78.09523624704913,15.647199753974132,0.0 78.09770874799885,15.651223234060055,0.0</coordinates>
                        </LinearRing>
                    </outerBoundaryIs>
                </Polygon>
            </Placemark>
            <Placemark id="13">
                <styleUrl>#14</styleUrl>
                <LineString id="12">
                    <coordinates>78.09770874799885,15.651223234060055,0.0 78.0993735889659,15.651799201948455,0.0 78.1089075813858,15.645878403313569,0.0 78.10861360892764,15.644331960130112,0.0 78.10504631946202,15.640787096729285,0.0 78.10114027966802,15.643294019933409,0.0 78.09784337573375,15.645257098993657,0.0 78.09523624704913,15.647199753974132,0.0 78.09770874799885,15.651223234060055,0.0</coordinates>
                </LineString>
            </Placemark>
            <Placemark id="17">
                <styleUrl>#18</styleUrl>
                <Point id="16">
                    <coordinates>78.10874689298538,15.645033102946499,0.0</coordinates>
                </Point>
            </Placemark>
            <Placemark id="22">
                <styleUrl>#18</styleUrl>
                <Point id="21">
                    <coordinates>78.10573142351458,15.647850952121699,0.0</coordinates>
                </Point>
            </Placemark>
            <Placemark id="24">
                <styleUrl>#18</styleUrl>
                <Point id="23">
                    <coordinates>78.10180836836666,15.650287234077828,0.0</coordinates>
                </Point>
            </Placemark>
            <Placemark id="26">
                <styleUrl>#18</styleUrl>
                <Point id="25">
                    <coordinates>78.0993154617464,15.651734584139923,0.0</coordinates>
                </Point>
            </Placemark>
            <Placemark id="28">
                <styleUrl>#18</styleUrl>
                <Point id="27">
                    <coordinates>78.10543320669605,15.64121384769532,0.0</coordinates>
                </Point>
            </Placemark>
            <Placemark id="30">
                <styleUrl>#18</styleUrl>
                <Point id="29">
                    <coordinates>78.10165040458934,15.642966626371036,0.0</coordinates>
                </Point>
            </Placemark>
            <Placemark id="32">
                <styleUrl>#18</styleUrl>
                <Point id="31">
                    <coordinates>78.09770225352236,15.645362255582107,0.0</coordinates>
                </Point>
            </Placemark>
            <Placemark id="34">
                <styleUrl>#18</styleUrl>
                <Point id="33">
                    <coordinates>78.09620747981266,15.648780251465007,0.0</coordinates>
                </Point>
            </Placemark>
            <Placemark id="36">
                <styleUrl>#18</styleUrl>
                <Point id="35">
                    <coordinates>78.1089075813858,15.645878403313569,0.0</coordinates>
                </Point>
            </Placemark>
            <Placemark id="49">
                <name>KM 0.500</name>
                <styleUrl>#50</styleUrl>
                <Point id="48">
                    <coordinates>78.09253772768568,15.649209291437732,0.0</coordinates>
                </Point>
            </Placemark>
            <Placemark id="55">
                <name>KM 1.000</name>
                <styleUrl>#50</styleUrl>
                <Point id="54">
                    <coordinates>78.09423104543141,15.64507867170294,0.0</coordinates>
                </Point>
            </Placemark>
            <Placemark id="57">
                <name>KM 1.500</name>
                <styleUrl>#50</styleUrl>
                <Point id="56">
                    <coordinates>78.09814887956045,15.642516540085328,0.0</coordinates>
                </Point>
            </Placemark>
            <Placemark id="59">
                <name>KM 2.000</name>
                <styleUrl>#50</styleUrl>
                <Point id="58">
                    <coordinates>78.10579184782948,15.640892131626066,0.0</coordinates>
                </Point>
            </Placemark>
        </Folder>
        <Folder id="37">
            <Style id="40">
                <IconStyle id="41">
                    <colorMode>normal</colorMode>
                    <scale>0</scale>
                    <heading>0</heading>
                    <Icon id="42">
                        <href>http://maps.google.com/mapfiles/kml/pushpin/ylw-pushpin.png</href>
                    </Icon>
                </IconStyle>
                <LabelStyle id="43">
                    <color>ff0000ff</color>
                    <colorMode>normal</colorMode>
                    <scale>0.5</scale>
                </LabelStyle>
            </Style>
            <name>0</name>
            <Placemark id="39">
                <name>KM 0.000</name>
                <styleUrl>#40</styleUrl>
                <Point id="38">
                    <coordinates>78.09762600993582,15.651685482062506,0.0</coordinates>
                </Point>
            </Placemark>
            <Placemark id="45">
                <name>T.E KM 1.500</name>
                <styleUrl>#40</styleUrl>
                <Point id="44">
                    <coordinates>78.10904295838652,15.64406397787967,0.0</coordinates>
                </Point>
            </Placemark>
            <Placemark id="47">
                <name>KM 1.000</name>
                <styleUrl>#40</styleUrl>
                <Point id="46">
                    <coordinates>78.10616376151171,15.647975056401481,0.0</coordinates>
                </Point>
            </Placemark>
            <Placemark id="61">
                <name>MEEDIVEMULA SST</name>
                <styleUrl>#40</styleUrl>
                <Point id="60">
                    <coordinates>78.10069838743341,15.65978640847198,0.0</coordinates>
                </Point>
            </Placemark>
        </Folder>
    </Document>
</kml>
